NORAD_CAT_ID,OBJECT_NAME,OBJECT_TYPE,EPOCH,MEAN_MOTION,ECCENTRICITY,INCLINATION,RA_OF_ASC_NODE,ARG_OF_PERICENTER,MEAN_ANOMALY,BSTAR,MEAN_MOTION_DOT,MEAN_MOTION_DDOT,TLE_LINE0,TLE_LINE1,TLE_LINE2,SEMIMAJOR_AXIS,PERIOD,APOGEE,PERIGEE,DECAYED
54000.0,STARLINK-5088,PAYLOAD,2023-09-14 21:15:36,15.0882373,0.0001369,53.2168,315.1115,82.4355,277.6793,-8.2072e-05,-1.593e-05,0.0,0 STARLINK-5088,1 54000U 22125AN  23257.88584006 -.00001593  00000-0 -82072-4 0  9992,2 54000  53.2168 315.1115 0001369  82.4355 277.6793 15.08823730 52701,6917.93,95.439,540.742,538.848,0.0
54000.0,STARLINK-5088,PAYLOAD,2023-09-15 09:58:41,15.08834808,0.0001378,53.2162,312.7324,77.092,283.0226,0.00030763,4.611e-05,0.0,0 STARLINK-5088,1 54000U 22125AN  23258.41576159  .00004611  00000-0  30763-3 0  9993,2 54000  53.2162 312.7324 0001378  77.0920 283.0226 15.08834808 52854,6917.896,95.438,540.715,538.808,0.0
54000.0,STARLINK-5088,PAYLOAD,2023-09-15 11:34:05,15.08835257,0.0001416,53.2162,312.4346,74.8675,285.2474,0.00050829,7.81e-05,0.0,0 STARLINK-5088,1 54000U 22125AN  23258.48200337  .00007810  00000-0  50829-3 0  9991,2 54000  53.2162 312.4346 0001416  74.8675 285.2474 15.08835257 52791,6917.895,95.438,540.739,538.78,0.0
54000.0,STARLINK-5088,PAYLOAD,2023-09-16 09:49:28,15.08870359,0.0001498,53.2158,308.2718,71.7389,288.3766,0.0010752,0.00016879,0.0,0 STARLINK-5088,1 54000U 22125AN  23259.40935646  .00016879  00000-0  10752-2 0  9997,2 54000  53.2158 308.2718 0001498  71.7389 288.3766 15.08870359 53005,6917.788,95.436,540.689,538.616,0.0
54000.0,STARLINK-5088,PAYLOAD,2023-09-16 13:00:14,15.08872123,0.0001503,53.2157,307.6769,72.0024,288.1132,0.00094871,0.00014856,0.0,0 STARLINK-5088,1 54000U 22125AN  23259.54183372  .00014856  00000-0  94871-3 0  9991,2 54000  53.2157 307.6769 0001503  72.0024 288.1132 15.08872123 52959,6917.782,95.436,540.687,538.607,0.0
54000.0,STARLINK-5088,PAYLOAD,2023-09-16 22:32:33,15.08860588,0.0001446,53.2157,305.8923,82.2357,277.8799,0.00033779,5.095e-05,0.0,0 STARLINK-5088,1 54000U 22125AN  23259.93927129  .00005095  00000-0  33779-3 0  9995,2 54000  53.2157 305.8923 0001446  82.2357 277.8799 15.08860588 53080,6917.817,95.436,540.683,538.682,0.0
54000.0,STARLINK-5088,PAYLOAD,2023-09-17 08:04:51,15.088542,0.0001488,53.2166,304.1095,82.692,277.4241,0.00033778,5.094e-05,0.0,0 STARLINK-5088,1 54000U 22125AN  23260.33671108  .00005094  00000-0  33778-3 0  9992,2 54000  53.2166 304.1095 0001488  82.6920 277.4241 15.08854200 53079,6917.837,95.437,540.731,538.673,0.0
54000.0,STARLINK-5088,PAYLOAD,2023-09-18 03:09:29,15.08846226,0.0001487,53.2149,300.5369,88.7654,271.3509,0.00017631,2.52e-05,0.0,0 STARLINK-5088,1 54000U 22125AN  23261.13159010  .00002520  00000-0  17631-3 0  9995,2 54000  53.2149 300.5369 0001487  88.7654 271.3509 15.08846226 53264,6917.861,95.437,540.755,538.698,0.0
54000.0,STARLINK-5088,PAYLOAD,2023-09-18 09:31:01,15.08851675,0.0001486,53.2162,299.3491,96.8553,263.2609,0.00012361,1.68e-05,0.0,0 STARLINK-5088,1 54000U 22125AN  23261.39654674  .00001680  00000-0  12361-3 0  9990,2 54000  53.2162 299.3491 0001486  96.8553 263.2609 15.08851675 53239,6917.845,95.437,540.738,538.682,0.0
54000.0,STARLINK-5088,PAYLOAD,2023-09-18 19:03:20,15.08847,0.0001518,53.2161,297.5662,87.0657,273.0509,8.2805e-05,1.03e-05,0.0,0 STARLINK-5088,1 54000U 22125AN  23261.79398790  .00001030  00000-0  82805-4 0  9998,2 54000  53.2161 297.5662 0001518  87.0657 273.0509 15.08847000 53292,6917.859,95.437,540.774,538.674,0.0
54000.0,STARLINK-5088,PAYLOAD,2023-09-18 23:49:30,15.08843043,0.0001515,53.216,296.6745,87.9217,272.1949,7.0449e-05,8.33e-06,0.0,0 STARLINK-5088,1 54000U 22125AN  23261.99270907  .00000833  00000-0  70449-4 0  9990,2 54000  53.2160 296.6745 0001515  87.9217 272.1949 15.08843043 53393,6917.871,95.437,540.784,538.688,0.0
54000.0,STARLINK-5088,PAYLOAD,2023-09-19 07:46:25,15.08849863,0.0001522,53.2158,295.1872,92.1656,267.951,0.00020615,2.995e-05,0.0,0 STARLINK-5088,1 54000U 22125AN  23262.32390517  .00002995  00000-0  20615-3 0  9998,2 54000  53.2158 295.1872 0001522  92.1656 267.9510 15.08849863 53446,6917.85,95.437,540.768,538.662,0.0
54000.0,STARLINK-5088,PAYLOAD,2023-09-20 01:15:40,15.08824721,0.0001513,53.2158,291.9162,82.5145,277.6019,-0.00028497,-4.819e-05,0.0,0 STARLINK-5088,1 54000U 22125AN  23263.05255335 -.00004819  00000-0 -28497-3 0  9992,2 54000  53.2158 291.9162 0001513  82.5145 277.6019 15.08824721 53558,6917.927,95.439,540.839,538.745,0.0
54000.0,STARLINK-5088,PAYLOAD,2023-09-20 09:12:36,15.08829851,0.0001487,53.2159,290.4294,85.7123,274.4039,-0.0001215,-2.221e-05,0.0,0 STARLINK-5088,1 54000U 22125AN  23263.38375407 -.00002221  00000-0 -12150-3 0  9995,2 54000  53.2159 290.4294 0001487  85.7123 274.4039 15.08829851 53534,6917.911,95.438,540.805,538.748,0.0
54000.0,STARLINK-5088,PAYLOAD,2023-09-20 18:44:55,15.08829623,0.0001474,53.2159,288.6451,84.9935,275.1226,-3.369e-06,-3.42e-06,0.0,0 STARLINK-5088,1 54000U 22125AN  23263.78119663 -.00000342  00000-0 -33690-5 0  9995,2 54000  53.2159 288.6451 0001474  84.9935 275.1226 15.08829623 53663,6917.912,95.438,540.797,538.757,0.0
54000.0,STARLINK-5088,PAYLOAD,2023-09-21 10:38:47,15.08841977,0.0001515,53.2157,285.6709,80.8114,279.305,0.00074419,0.00011576,0.0,0 STARLINK-5088,1 54000U 22125AN  23264.44360122  .00011576  00000-0  74419-3 0  9998,2 54000  53.2157 285.6709 0001515  80.8114 279.3050 15.08841977 53694,6917.874,95.437,540.787,538.691,0.0
54000.0,STARLINK-5088,PAYLOAD,2023-09-21 18:35:42,15.08842693,0.0001512,53.2154,284.1843,82.976,277.1404,0.00053606,8.254e-05,0.0,0 STARLINK-5088,1 54000U 22125AN  23264.77480150  .00008254  00000-0  53606-3 0  9992,2 54000  53.2154 284.1843 0001512  82.9760 277.1404 15.08842693 53742,6917.872,95.437,540.783,538.691,0.0
54000.0,STARLINK-5088,PAYLOAD,2023-09-22 00:57:15,15.08845391,0.0001539,53.2154,282.9946,83.0733,277.0434,0.0005025,7.72e-05,0.0,0 STARLINK-5088,1 54000U 22125AN  23265.03976117  .00007720  00000-0  50250-3 0  9994,2 54000  53.2154 282.9946 0001539  83.0733 277.0434 15.08845391 53855,6917.864,95.437,540.794,538.664,0.0
54000.0,STARLINK-5088,PAYLOAD,2023-09-22 08:54:10,15.0885286,0.0001545,53.2154,281.5076,83.1236,276.9932,0.00059402,9.182e-05,0.0,0 STARLINK-5088,1 54000U 22125AN  23265.37095845  .00009182  00000-0  59402-3 0  9993,2 54000  53.2154 281.5076 0001545  83.1236 276.9932 15.08852860 53838,6917.841,95.437,540.775,538.637,0.0
54000.0,STARLINK-5088,PAYLOAD,2023-09-22 18:26:29,15.08849988,0.0001568,53.2152,279.7237,83.127,276.9901,0.00036388,5.509e-05,0.0,0 STARLINK-5088,1 54000U 22125AN  23265.76839745  .00005509  00000-0  36388-3 0  9998,2 54000  53.2152 279.7237 0001568  83.1270 276.9901 15.08849988 53896,6917.85,95.437,540.8,538.63,0.0
54000.0,STARLINK-5088,PAYLOAD,2023-09-23 00:48:02,15.08848532,0.0001589,53.215,278.5351,83.0553,277.062,0.00025588,3.788e-05,0.0,0 STARLINK-5088,1 54000U 22125AN  23266.03335737  .00003788  00000-0  25588-3 0  9998,2 54000  53.2150 278.5351 0001589  83.0553 277.0620 15.08848532 54002,6917.854,95.437,540.819,538.62,0.0
54000.0,STARLINK-5088,PAYLOAD,2023-09-23 10:20:20,15.08851418,0.0001622,53.2152,276.7503,84.4198,275.6979,0.00027421,4.08e-05,0.0,0 STARLINK-5088,1 54000U 22125AN  23266.43079601  .00004080  00000-0  27421-3 0  9991,2 54000  53.2152 276.7503 0001622  84.4198 275.6979 15.08851418 53996,6917.845,95.437,540.833,538.588,0.0
54000.0,STARLINK-5088,PAYLOAD,2023-09-23 18:17:16,15.0884293,0.0001922,53.2155,275.2623,85.8224,274.2988,9.6224e-05,1.244e-05,0.0,0 STARLINK-5088,1 54000U 22125AN  23266.76199950  .00001244  00000-0  96224-4 0  9994,2 54000  53.2155 275.2623 0001922  85.8224 274.2988 15.08842930 54113,6917.871,95.437,541.066,538.407,0.0
54000.0,STARLINK-5088,PAYLOAD,2023-09-24 07:00:21,15.08841401,0.0001494,53.2159,272.8838,97.9603,262.1559,2.5254e-05,1.14e-06,0.0,0 STARLINK-5088,1 54000U 22125AN  23267.29191881  .00000114  00000-0  25254-4 0  9998,2 54000  53.2159 272.8838 0001494  97.9603 262.1559 15.08841401 54120,6917.876,95.437,540.775,538.708,0.0
54000.0,STARLINK-5088,PAYLOAD,2023-09-25 00:29:36,15.08838724,0.0001569,53.2157,269.6125,96.7147,263.4024,6.5313e-05,7.52e-06,0.0,0 STARLINK-5088,1 54000U 22125AN  23268.02056151  .00000752  00000-0  65313-4 0  9998,2 54000  53.2157 269.6125 0001569  96.7147 263.4024 15.08838724 54309,6917.884,95.438,540.835,538.664,0.0
54000.0,STARLINK-5088,PAYLOAD,2023-09-25 10:01:54,15.0884879,0.0001603,53.2155,267.8289,89.6337,270.4838,0.00020425,2.965e-05,0.0,0 STARLINK-5088,1 54000U 22125AN  23268.41799740  .00002965  00000-0  20425-3 0  9991,2 54000  53.2155 267.8289 0001603  89.6337 270.4838 15.08848790 54292,6917.854,95.437,540.827,538.61,0.0
54000.0,STARLINK-5088,PAYLOAD,2023-09-26 06:41:55,15.08859488,0.0001478,53.215,263.9627,89.2497,270.8665,0.00041467,6.321e-05,0.0,0 STARLINK-5088,1 54000U 22125AN  23269.27911085  .00006321  00000-0  41467-3 0  9993,2 54000  53.2150 263.9627 0001478  89.2497 270.8665 15.08859488 54426,6917.821,95.436,540.708,538.663,0.0
54000.0,STARLINK-5088,PAYLOAD,2023-09-27 00:11:10,15.08833564,0.0001305,53.2148,260.6913,76.2973,283.8165,-0.00020142,-3.491e-05,0.0,0 STARLINK-5088,1 54000U 22125AN  23270.00775788 -.00003491  00000-0 -20142-3 0  9998,2 54000  53.2148 260.6913 0001305  76.2973 283.8165 15.08833564 54605,6917.9,95.438,540.668,538.862,0.0
54000.0,STARLINK-5088,PAYLOAD,2023-09-27 06:32:43,15.08831657,0.0001259,53.2152,259.5018,81.2338,278.8796,-0.00016054,-2.841e-05,0.0,0 STARLINK-5088,1 54000U 22125AN  23270.27272020 -.00002841  00000-0 -16054-3 0  9993,2 54000  53.2152 259.5018 0001259  81.2338 278.8796 15.08831657 54573,6917.906,95.438,540.642,538.9,0.0
54000.0,STARLINK-5088,PAYLOAD,2023-09-28 07:58:53,15.08838703,0.0001235,53.2153,254.7446,88.9839,271.1295,0.00032478,4.885e-05,0.0,0 STARLINK-5088,1 54000U 22125AN  23271.33256509  .00004885  00000-0  32478-3 0  9991,2 54000  53.2153 254.7446 0001235  88.9839 271.1295 15.08838703 54805,6917.884,95.438,540.604,538.895,0.0
